[{"CCSDS_OMM_VERS":"2.0","COMMENT":"GENERATED VIA SPACE-TRACK.ORG API","CREATION_DATE":"2021-05-13T22:46:11","ORIGINATOR":"18 SPCS","OBJECT_NAME":"STARLINK-1024","OBJECT_ID":"2019-074S","CENTER_NAME":"EARTH","REF_FRAME":"TEME","TIME_SYSTEM":"UTC","MEAN_ELEMENT_THEORY":"SGP4","EPOCH":"2021-05-13T15:18:43.258752","MEAN_MOTION":"15.06890020","ECCENTRICITY":"0.00017750","INCLINATION":"52.9995","RA_OF_ASC_NODE":"191.2771","ARG_OF_PERICENTER":"135.0852","MEAN_ANOMALY":"225.0280","EPHEMERIS_TYPE":"0","CLASSIFICATION_TYPE":"U","NORAD_CAT_ID":"44729","ELEMENT_SET_NO":"999","REV_AT_EPOCH":"8321","BSTAR":"0.00018072000000","MEAN_MOTION_DOT":"0.00002446","MEAN_MOTION_DDOT":"0.0000000000000","SEMIMAJOR_AXIS":"6923.847","PERIOD":"95.561","APOAPSIS":"546.941","PERIAPSIS":"544.483","OBJECT_TYPE":"PAYLOAD","RCS_SIZE":"LARGE","COUNTRY_CODE":"US","LAUNCH_DATE":"2019-11-11","SITE":"AFETR","DECAY_DATE":null,"FILE":"3036338","GP_ID":"177199230","TLE_LINE0":"0 STARLINK-1024","TLE_LINE1":"1 44729U 19074S   21133.63800068  .00002446  00000-0  18072-3 0  9995","TLE_LINE2":"2 44729  52.9995 191.2771 0001775 135.0852 225.0280 15.06890020 83213"},{"CCSDS_OMM_VERS":"2.0","COMMENT":"GENERATED VIA SPACE-TRACK.ORG API","CREATION_DATE":"2021-05-14T18:47:57","ORIGINATOR":"18 SPCS","OBJECT_NAME":"STARLINK-1024","OBJECT_ID":"2019-074S","CENTER_NAME":"EARTH","REF_FRAME":"TEME","TIME_SYSTEM":"UTC","MEAN_ELEMENT_THEORY":"SGP4","EPOCH":"2021-05-14T07:13:47.851392","MEAN_MOTION":"15.06892802","ECCENTRICITY":"0.00017350","INCLINATION":"52.9995","RA_OF_ASC_NODE":"188.2938","ARG_OF_PERICENTER":"136.2689","MEAN_ANOMALY":"223.8437","EPHEMERIS_TYPE":"0","CLASSIFICATION_TYPE":"U","NORAD_CAT_ID":"44729","ELEMENT_SET_NO":"999","REV_AT_EPOCH":"8314","BSTAR":"0.00015587000000","MEAN_MOTION_DOT":"0.00002071","MEAN_MOTION_DDOT":"0.0000000000000","SEMIMAJOR_AXIS":"6923.839","PERIOD":"95.561","APOAPSIS":"546.905","PERIAPSIS":"544.502","OBJECT_TYPE":"PAYLOAD","RCS_SIZE":"LARGE","COUNTRY_CODE":"US","LAUNCH_DATE":"2019-11-11","SITE":"AFETR","DECAY_DATE":null,"FILE":"3036770","GP_ID":"177228656","TLE_LINE0":"0 STARLINK-1024","TLE_LINE1":"1 44729U 19074S   21134.30124828  .00002071  00000-0  15587-3 0  9995","TLE_LINE2":"2 44729  52.9995 188.2938 0001735 136.2689 223.8437 15.06892802 83143"},{"CCSDS_OMM_VERS":"2.0","COMMENT":"GENERATED VIA SPACE-TRACK.ORG API","CREATION_DATE":"2021-05-15T03:27:12","ORIGINATOR":"18 SPCS","OBJECT_NAME":"STARLINK-1024","OBJECT_ID":"2019-074S","CENTER_NAME":"EARTH","REF_FRAME":"TEME","TIME_SYSTEM":"UTC","MEAN_ELEMENT_THEORY":"SGP4","EPOCH":"2021-05-14T15:11:20.088960","MEAN_MOTION":"15.06894171","ECCENTRICITY":"0.00016860","INCLINATION":"52.9994","RA_OF_ASC_NODE":"186.8021","ARG_OF_PERICENTER":"136.9399","MEAN_ANOMALY":"223.1722","EPHEMERIS_TYPE":"0","CLASSIFICATION_TYPE":"U","NORAD_CAT_ID":"44729","ELEMENT_SET_NO":"999","REV_AT_EPOCH":"8319","BSTAR":"0.00014104000000","MEAN_MOTION_DOT":"0.00001847","MEAN_MOTION_DDOT":"0.0000000000000","SEMIMAJOR_AXIS":"6923.834","PERIOD":"95.561","APOAPSIS":"546.867","PERIAPSIS":"544.532","OBJECT_TYPE":"PAYLOAD","RCS_SIZE":"LARGE","COUNTRY_CODE":"US","LAUNCH_DATE":"2019-11-11","SITE":"AFETR","DECAY_DATE":null,"FILE":"3036986","GP_ID":"177255495","TLE_LINE0":"0 STARLINK-1024","TLE_LINE1":"1 44729U 19074S   21134.63287140  .00001847  00000-0  14104-3 0  9992","TLE_LINE2":"2 44729  52.9994 186.8021 0001686 136.9399 223.1722 15.06894171 83195"},{"CCSDS_OMM_VERS":"2.0","COMMENT":"GENERATED VIA SPACE-TRACK.ORG API","CREATION_DATE":"2021-05-15T06:36:13","ORIGINATOR":"18 SPCS","OBJECT_NAME":"STARLINK-1024","OBJECT_ID":"2019-074S","CENTER_NAME":"EARTH","REF_FRAME":"TEME","TIME_SYSTEM":"UTC","MEAN_ELEMENT_THEORY":"SGP4","EPOCH":"2021-05-15T03:55:23.645568","MEAN_MOTION":"15.06895803","ECCENTRICITY":"0.00016450","INCLINATION":"52.9993","RA_OF_ASC_NODE":"184.4152","ARG_OF_PERICENTER":"138.1586","MEAN_ANOMALY":"221.9528","EPHEMERIS_TYPE":"0","CLASSIFICATION_TYPE":"U","NORAD_CAT_ID":"44729","ELEMENT_SET_NO":"999","REV_AT_EPOCH":"8344","BSTAR":"0.00012353000000","MEAN_MOTION_DOT":"0.00001582","MEAN_MOTION_DDOT":"0.0000000000000","SEMIMAJOR_AXIS":"6923.829","PERIOD":"95.561","APOAPSIS":"546.833","PERIAPSIS":"544.555","OBJECT_TYPE":"PAYLOAD","RCS_SIZE":"LARGE","COUNTRY_CODE":"US","LAUNCH_DATE":"2019-11-11","SITE":"AFETR","DECAY_DATE":null,"FILE":"3037049","GP_ID":"177260699","TLE_LINE0":"0 STARLINK-1024","TLE_LINE1":"1 44729U 19074S   21135.16346812  .00001582  00000-0  12353-3 0  9993","TLE_LINE2":"2 44729  52.9993 184.4152 0001645 138.1586 221.9528 15.06895803 83441"},{"CCSDS_OMM_VERS":"2.0","COMMENT":"GENERATED VIA SPACE-TRACK.ORG API","CREATION_DATE":"2021-05-15T18:57:13","ORIGINATOR":"18 SPCS","OBJECT_NAME":"STARLINK-1024","OBJECT_ID":"2019-074S","CENTER_NAME":"EARTH","REF_FRAME":"TEME","TIME_SYSTEM":"UTC","MEAN_ELEMENT_THEORY":"SGP4","EPOCH":"2021-05-15T11:52:55.818336","MEAN_MOTION":"15.06898085","ECCENTRICITY":"0.00016130","INCLINATION":"52.9993","RA_OF_ASC_NODE":"182.9235","ARG_OF_PERICENTER":"138.4197","MEAN_ANOMALY":"221.6914","EPHEMERIS_TYPE":"0","CLASSIFICATION_TYPE":"U","NORAD_CAT_ID":"44729","ELEMENT_SET_NO":"999","REV_AT_EPOCH":"8332","BSTAR":"0.00012167000000","MEAN_MOTION_DOT":"0.00001554","MEAN_MOTION_DDOT":"0.0000000000000","SEMIMAJOR_AXIS":"6923.822","PERIOD":"95.561","APOAPSIS":"546.804","PERIAPSIS":"544.571","OBJECT_TYPE":"PAYLOAD","RCS_SIZE":"LARGE","COUNTRY_CODE":"US","LAUNCH_DATE":"2019-11-11","SITE":"AFETR","DECAY_DATE":null,"FILE":"3037141","GP_ID":"177281457","TLE_LINE0":"0 STARLINK-1024","TLE_LINE1":"1 44729U 19074S   21135.49509049  .00001554  00000-0  12167-3 0  9994","TLE_LINE2":"2 44729  52.9993 182.9235 0001613 138.4197 221.6914 15.06898085 83320"},{"CCSDS_OMM_VERS":"2.0","COMMENT":"GENERATED VIA SPACE-TRACK.ORG API","CREATION_DATE":"2021-05-16T02:58:51","ORIGINATOR":"18 SPCS","OBJECT_NAME":"STARLINK-1024","OBJECT_ID":"2019-074S","CENTER_NAME":"EARTH","REF_FRAME":"TEME","TIME_SYSTEM":"UTC","MEAN_ELEMENT_THEORY":"SGP4","EPOCH":"2021-05-15T15:03:56.666016","MEAN_MOTION":"15.06898914","ECCENTRICITY":"0.00016010","INCLINATION":"52.9993","RA_OF_ASC_NODE":"182.3268","ARG_OF_PERICENTER":"138.5446","MEAN_ANOMALY":"221.5664","EPHEMERIS_TYPE":"0","CLASSIFICATION_TYPE":"U","NORAD_CAT_ID":"44729","ELEMENT_SET_NO":"999","REV_AT_EPOCH":"8334","BSTAR":"0.00012201000000","MEAN_MOTION_DOT":"0.00001560","MEAN_MOTION_DDOT":"0.0000000000000","SEMIMAJOR_AXIS":"6923.820","PERIOD":"95.560","APOAPSIS":"546.793","PERIAPSIS":"544.576","OBJECT_TYPE":"PAYLOAD","RCS_SIZE":"LARGE","COUNTRY_CODE":"US","LAUNCH_DATE":"2019-11-11","SITE":"AFETR","DECAY_DATE":null,"FILE":"3037145","GP_ID":"177304593","TLE_LINE0":"0 STARLINK-1024","TLE_LINE1":"1 44729U 19074S   21135.62773919  .00001560  00000-0  12201-3 0  9994","TLE_LINE2":"2 44729  52.9993 182.3268 0001601 138.5446 221.5664 15.06898914 83349"},{"CCSDS_OMM_VERS":"2.0","COMMENT":"GENERATED VIA SPACE-TRACK.ORG API","CREATION_DATE":"2021-05-16T18:30:14","ORIGINATOR":"18 SPCS","OBJECT_NAME":"STARLINK-1024","OBJECT_ID":"2019-074S","CENTER_NAME":"EARTH","REF_FRAME":"TEME","TIME_SYSTEM":"UTC","MEAN_ELEMENT_THEORY":"SGP4","EPOCH":"2021-05-16T13:21:02.797632","MEAN_MOTION":"15.06900349","ECCENTRICITY":"0.00015300","INCLINATION":"53.0005","RA_OF_ASC_NODE":"178.1498","ARG_OF_PERICENTER":"142.3776","MEAN_ANOMALY":"217.7319","EPHEMERIS_TYPE":"0","CLASSIFICATION_TYPE":"U","NORAD_CAT_ID":"44729","ELEMENT_SET_NO":"999","REV_AT_EPOCH":"8348","BSTAR":"0.00010985000000","MEAN_MOTION_DOT":"0.00001376","MEAN_MOTION_DDOT":"0.0000000000000","SEMIMAJOR_AXIS":"6923.815","PERIOD":"95.560","APOAPSIS":"546.740","PERIAPSIS":"544.621","OBJECT_TYPE":"PAYLOAD","RCS_SIZE":"LARGE","COUNTRY_CODE":"US","LAUNCH_DATE":"2019-11-11","SITE":"AFETR","DECAY_DATE":null,"FILE":"3037149","GP_ID":"177328215","TLE_LINE0":"0 STARLINK-1024","TLE_LINE1":"1 44729U 19074S   21136.55628238  .00001376  00000-0  10985-3 0  9992","TLE_LINE2":"2 44729  53.0005 178.1498 0001530 142.3776 217.7319 15.06900349 83488"},{"CCSDS_OMM_VERS":"2.0","COMMENT":"GENERATED VIA SPACE-TRACK.ORG API","CREATION_DATE":"2021-05-17T03:04:03","ORIGINATOR":"18 SPCS","OBJECT_NAME":"STARLINK-1024","OBJECT_ID":"2019-074S","CENTER_NAME":"EARTH","REF_FRAME":"TEME","TIME_SYSTEM":"UTC","MEAN_ELEMENT_THEORY":"SGP4","EPOCH":"2021-05-16T14:56:33.240480","MEAN_MOTION":"15.06900302","ECCENTRICITY":"0.00015190","INCLINATION":"53.0005","RA_OF_ASC_NODE":"177.8514","ARG_OF_PERICENTER":"142.4880","MEAN_ANOMALY":"217.6215","EPHEMERIS_TYPE":"0","CLASSIFICATION_TYPE":"U","NORAD_CAT_ID":"44729","ELEMENT_SET_NO":"999","REV_AT_EPOCH":"8349","BSTAR":"0.00010607000000","MEAN_MOTION_DOT":"0.00001319","MEAN_MOTION_DDOT":"0.0000000000000","SEMIMAJOR_AXIS":"6923.816","PERIOD":"95.560","APOAPSIS":"546.732","PERIAPSIS":"544.629","OBJECT_TYPE":"PAYLOAD","RCS_SIZE":"LARGE","COUNTRY_CODE":"US","LAUNCH_DATE":"2019-11-11","SITE":"AFETR","DECAY_DATE":null,"FILE":"3037152","GP_ID":"177351562","TLE_LINE0":"0 STARLINK-1024","TLE_LINE1":"1 44729U 19074S   21136.62260695  .00001319  00000-0  10607-3 0  9997","TLE_LINE2":"2 44729  53.0005 177.8514 0001519 142.4880 217.6215 15.06900302 83491"}]